GLOBALSTAR M094         
1 39074U 13005C   24366.46501112 -.00000093  00000+0  60048-4 0  9997
2 39074  51.9979 332.7820 0000167   9.0702 351.0168 12.62266523551192
GLOBALSTAR M096         
1 39075U 13005D   24366.47822408 -.00000086  00000+0  98161-4 0  9992
2 39075  52.0092  21.1252 0000262 181.5214 178.5652 12.62266232550117
GLOBALSTAR M078         
1 39076U 13005E   24366.53042566 -.00000157  00000+0 -29491-3 0  9998
2 39076  51.9876 105.6994 0001492 146.8205 213.2756 12.62267439548745
GLOBALSTAR M095         
1 39077U 13005F   24366.55721764 -.00000085  00000+0  10443-3 0  9991
2 39077  51.9799 102.9006 0001046 155.1853 204.9064 12.62269969548605
GLOBALSTAR M087         
1 52888U 22064A   24366.40898354 -.00000055  00000+0  21968-3 0  9996
2 52888  51.9769 246.9001 0021421   9.7607 350.3684 12.88918431123810
